ONEWEB-0558             
1 56059U 23043P   25030.81847759  .00000077  00000+0  15519-3 0  9993
2 56059  87.9340 344.0919 0002162  93.0956 267.0426 13.21828360 91877
ONEWEB-0559             
1 56060U 23043Q   25030.80744871  .00000092  00000+0  19235-3 0  9991
2 56060  87.9336 344.0882 0001670  97.0353 263.0971 13.21828059 91888
ONEWEB-0566             
1 56061U 23043R   25030.80114589  .00000109  00000+0  23342-3 0  9992
2 56061  87.9336 344.0891 0002092  96.6345 263.5027 13.21827583 91860
ONEWEB-0568             
1 56062U 23043S   25030.51904404  .00000084  00000+0  18648-3 0  9999
2 56062  87.9126 328.9287 0001895  70.1221 290.0114 13.16595695 93749
ONEWEB-0574             
1 56063U 23043T   25030.56774890  .00000080  00000+0  16169-3 0  9991
2 56063  87.9334 344.1260 0001984  78.6625 281.4732 13.21825291 92789
ONEWEB-0575             
1 56064U 23043U   25030.81669565  .00000101  00000+0  23157-3 0  9991
2 56064  87.9128 328.8814 0001495  62.5834 297.5448 13.16596332 92862
ONEWEB-0576             
1 56065U 23043V   25030.79768543  .00000119  00000+0  27788-3 0  9998
2 56065  87.9124 328.8774 0001773  70.7413 289.3910 13.16597307 92852
ONEWEB-0577             
1 56066U 23043W   25030.80402352  .00000092  00000+0  20644-3 0  9998
2 56066  87.9123 328.8765 0001298  56.5050 303.6204 13.16595318 92882
